     2.100          NAVIGATION                              RINEX VERSION / TYPE
fic2rin                                 11/10/2013 00:14:59 PGM / RUN BY / DATE
                                                            END OF HEADER
 1 13 11  9 14  0  0.0  .926959328353D-04  .329691829393D-11  .000000000000D+00
     .940000000000D+02 -.525000000000D+01  .463305012799D-08  .118766645558D+01
    -.931322574615D-07  .249700271524D-02  .102128833532D-04  .515368868065D+04
     .568800000000D+06  .856816768646D-07  .193497887804D+01  .540167093277D-07
     .960156322228D+00  .180437500000D+03  .430397582370D+00 -.804176354316D-08
     .200722646618D-09  .100000000000D+01  .176500000000D+04  .000000000000D+00
     .240000000000D+01  .000000000000D+00  .791624188423D-08  .940000000000D+02
     .561606000000D+06  .400000000000D+01
 2 13 11  9 14  0  0.0  .460378825665D-03  .216004991671D-11  .000000000000D+00
     .690000000000D+02 -.393750000000D+01  .502270921600D-08  .202924478694D+01
    -.245869159698D-06  .127303003101D-01  .101160258055D-04  .515375988197D+04
     .568800000000D+06 -.357627868652D-06  .190971157934D+01 -.689178705215D-07
     .938665297852D+00  .176562500000D+03 -.254336550746D+01 -.824355766298D-08
     .172150027883D-09  .100000000000D+01  .176500000000D+04  .000000000000D+00
     .240000000000D+01  .000000000000D+00 -.176951289177D-07  .690000000000D+02
     .561606000000D+06  .400000000000D+01
 3 13 11  9 14  0  0.0  .283855479211D-03  .511590769747D-11  .000000000000D+00
     .310000000000D+02 -.105218750000D+03  .515914347046D-08  .219135962654D+01
    -.561028718948D-05  .167068823939D-01  .704079866409D-05  .515374294090D+04
     .568800000000D+06  .191852450371D-06  .737411859570D+00 -.255182385445D-06
     .936215024176D+00  .228781250000D+03  .135014431244D+01 -.825284376407D-08
    -.117504894551D-09  .100000000000D+01  .176500000000D+04  .000000000000D+00
     .240000000000D+01  .000000000000D+00 -.465661287308D-08  .310000000000D+02
     .561606000000D+06  .400000000000D+01
 4 13 11  9 14  0  0.0  .299932435155D-05  .454747350886D-12  .000000000000D+00
     .110000000000D+02  .359375000000D+01  .509342644737D-08 -.956205840691D+00
     .331550836563D-06  .106653195107D-01  .935420393944D-05  .515363624573D+04
     .568800000000D+06  .428408384323D-07  .192596866026D+01  .201165676117D-06
     .937701454275D+00  .187281250000D+03  .105090751486D+01 -.836356266167D-08
     .165364030933D-09  .100000000000D+01  .176500000000D+04  .000000000000D+00
     .240000000000D+01  .000000000000D+00 -.651925802231D-08  .110000000000D+02
     .561606000000D+06  .400000000000D+01
 5 13 11  9 14  0  0.0 -.397850759327D-03  .682121026330D-12  .000000000000D+00
     .140000000000D+02  .196875000000D+02  .507235414105D-08 -.201369867397D+01
     .977888703346D-06  .342828314751D-02  .663287937641D-05  .515373451614D+04
     .568800000000D+06  .391155481339D-07  .297599591244D+01 -.298023223877D-07
     .948280953057D+00  .246406250000D+03  .324765161327D+00 -.834927635230D-08
    -.614311302817D-10  .100000000000D+01  .176500000000D+04  .000000000000D+00
     .240000000000D+01  .000000000000D+00 -.102445483208D-07  .140000000000D+02
     .561606000000D+06  .400000000000D+01
 6 13 11  9 14  0  0.0  .141812022775D-03  .173940861714D-10  .000000000000D+00
     .350000000000D+02 -.994062500000D+02  .505378193887D-08 -.225825670079D+01
    -.511668622494D-05  .819070939906D-02  .836141407490D-05  .515368385315D+04
     .568800000000D+06 -.156462192535D-06  .818116035120D+00 -.763684511185D-07
     .942700280462D+00  .210000000000D+03 -.206727088179D+00 -.835213361418D-08
    -.603596570791D-10  .100000000000D+01  .176500000000D+04  .000000000000D+00
     .240000000000D+01  .000000000000D+00 -.512227416039D-08  .350000000000D+02
     .561606000000D+06  .400000000000D+01
 7 13 11  9 14  0  0.0  .278823543340D-03  .420641299570D-11  .000000000000D+00
     .280000000000D+02  .535312500000D+02  .416910223127D-08  .644098696542D+00
     .290013849735D-05  .699960649945D-02  .790879130363D-05  .515366320229D+04
     .568800000000D+06  .372529029846D-07 -.118756287805D+01  .139698386192D-06
     .974500386138D+00  .234218750000D+03 -.284559628100D+01 -.802569144512D-08
     .134648465792D-09  .100000000000D+01  .176500000000D+04  .000000000000D+00
     .240000000000D+01  .000000000000D+00 -.107102096081D-07  .280000000000D+02
     .561606000000D+06  .400000000000D+01
 8 13 11  9 14  0  0.0  .974582508206D-05  .227373675443D-12  .000000000000D+00
     .210000000000D+02  .510625000000D+02  .372551232540D-08  .737319343167D-01
     .282935798168D-05  .134808218572D-01  .773184001446D-05  .515367347336D+04
     .568800000000D+06  .162050127983D-06 -.109256923177D+01  .104308128357D-06
     .997501861728D+00  .249812500000D+03 -.281041196889D+01 -.794818821680D-08
     .206437170365D-09  .100000000000D+01  .176500000000D+04  .000000000000D+00
     .240000000000D+01  .000000000000D+00 -.465661287308D-08  .210000000000D+02
     .561606000000D+06  .400000000000D+01
 9 13 11  9 14  0  0.0  .281773973256D-03  .284217094304D-11  .000000000000D+00
     .920000000000D+02  .472812500000D+02  .386801826134D-08  .182028824233D+01
     .232085585594D-05  .168269915739D-01  .799447298050D-05  .515370981979D+04
     .568800000000D+06  .309199094772D-06 -.120954348991D+01 -.217929482460D-06
     .983075186833D+00  .232031250000D+03  .174142276609D+01 -.768639159763D-08
     .138934358602D-09  .100000000000D+01  .176500000000D+04  .000000000000D+00
     .340000000000D+01  .000000000000D+00 -.605359673500D-08  .920000000000D+02
     .561606000000D+06  .400000000000D+01
10 13 11  9 14  0  0.0 -.101062003523D-03 -.147792889038D-11  .000000000000D+00
     .172000000000D+03  .204687500000D+02  .510056960205D-08 -.172425977900D+01
     .105984508991D-05  .131062798901D-01  .609643757343D-05  .515366873360D+04
     .568800000000D+06  .191852450371D-06  .299443817165D+01 -.912696123123D-07
     .943102584397D+00  .250281250000D+03  .830796965983D+00 -.824605776712D-08
     .785747015231D-11  .100000000000D+01  .176500000000D+04  .000000000000D+00
     .240000000000D+01  .000000000000D+00 -.279396772385D-08  .172000000000D+03
     .561606000000D+06  .400000000000D+01
11 13 11  9 14  0  0.0 -.436357688159D-03 -.341060513165D-11  .000000000000D+00
     .780000000000D+02 -.391562500000D+02  .628454749091D-08  .883466859095D+00
    -.187568366528D-05  .147433239035D-01  .108126550913D-04  .515369600296D+04
     .568800000000D+06 -.223517417908D-06  .162562737562D+01  .614672899246D-07
     .889222170461D+00  .137062500000D+03  .123837947925D+01 -.906823487124D-08
     .900037490174D-10  .100000000000D+01  .176500000000D+04  .000000000000D+00
     .240000000000D+01  .000000000000D+00 -.116415321827D-07  .780000000000D+02
     .561606000000D+06  .400000000000D+01
12 13 11  9 14  0  0.0  .167066697031D-03  .227373675443D-11  .000000000000D+00
     .430000000000D+02 -.264687500000D+02  .427339228966D-08  .336161088356D+00
    -.134669244289D-05  .454130442813D-02  .436417758465D-05  .515372942162D+04
     .568800000000D+06  .949949026108D-07 -.127069598330D+00  .353902578354D-07
     .986042754193D+00  .312687500000D+03  .331920144435D+00 -.815569686037D-08
     .803604901941D-10  .100000000000D+01  .176500000000D+04  .000000000000D+00
     .240000000000D+01  .000000000000D+00 -.121071934700D-07  .430000000000D+02
     .561606000000D+06  .400000000000D+01
13 13 11  9 14  0  0.0  .615818426013D-04 -.386535248253D-11  .000000000000D+00
     .700000000000D+02  .115937500000D+02  .395980779903D-08  .300015950235D+01
     .698491930962D-06  .501445413101D-02  .945478677750D-05  .515368131256D+04
     .568800000000D+06 -.111758708954D-07 -.215381809990D+01 -.353902578354D-07
     .979770245695D+00  .207593750000D+03  .219932117051D+01 -.771246411223D-08
    -.382158775590D-09  .100000000000D+01  .176500000000D+04  .000000000000D+00
     .240000000000D+01  .000000000000D+00 -.111758708954D-07  .700000000000D+02
     .561606000000D+06  .400000000000D+01
14 13 11  9 14  0  0.0  .211119186133D-03 -.102318153949D-11  .000000000000D+00
     .850000000000D+02  .268125000000D+02  .403231081907D-08 -.301861144901D+01
     .141933560371D-05  .740054994822D-02  .946968793869D-05  .515358278847D+04
     .568800000000D+06  .968575477600D-07 -.218426036451D+01 -.875443220139D-07
     .972410256562D+00  .200781250000D+03 -.198870896544D+01 -.772817905253D-08
    -.316441752498D-09  .100000000000D+01  .176500000000D+04  .000000000000D+00
     .340000000000D+01  .000000000000D+00 -.884756445885D-08  .850000000000D+02
     .561606000000D+06  .400000000000D+01
15 13 11  9 14  0  0.0 -.146252103150D-03 -.193267624127D-11  .000000000000D+00
     .190000000000D+02  .180000000000D+02  .492127641949D-08  .278539146886D+01
     .933185219765D-06  .580911163706D-02  .856444239616D-05  .515359884453D+04
     .568800000000D+06 -.633299350739D-07 -.228967481808D+01  .242143869400D-07
     .939067310666D+00  .204125000000D+03  .175492719256D+00 -.822998566908D-08
    -.313941648358D-09  .100000000000D+01  .176500000000D+04  .000000000000D+00
     .240000000000D+01  .000000000000D+00 -.102445483208D-07  .190000000000D+02
     .561606000000D+06  .400000000000D+01
16 13 11  9 14  0  0.0 -.242296140641D-03  .102318153949D-11  .000000000000D+00
     .230000000000D+02 -.189687500000D+02  .425946313802D-08 -.183275464504D+01
    -.122003257275D-05  .711304147262D-02  .423938035965D-05  .515374180984D+04
     .568800000000D+06 -.186264514923D-07 -.108615697217D+00 -.115483999252D-06
     .986696364047D+00  .311812500000D+03  .133085788952D+00 -.815569686037D-08
     .200365488884D-09  .100000000000D+01  .176500000000D+04  .000000000000D+00
     .240000000000D+01  .000000000000D+00 -.977888703346D-08  .230000000000D+02
     .561606000000D+06  .400000000000D+01
